[{"OBJECT_NAME":"PROBA-1","OBJECT_ID":"2001-049B","EPOCH":"2026-03-14T14:30:10.388160","MEAN_MOTION":15.07062957,"ECCENTRICITY":0.00572334,"INCLINATION":97.9638,"RA_OF_ASC_NODE":78.8499,"ARG_OF_PERICENTER":82.8223,"MEAN_ANOMALY":277.9506,"EPHEMERIS_TYPE":0,"CLASSIFICATION_TYPE":"U","NORAD_CAT_ID":26958,"ELEMENT_SET_NO":999,"REV_AT_EPOCH":32937,"BSTAR":0.00023862538,"MEAN_MOTION_DOT":3.644e-5,"MEAN_MOTION_DDOT":0},{"OBJECT_NAME":"CUTE-1 (CO-55)","OBJECT_ID":"2003-031E","EPOCH":"2026-03-13T23:45:05.354784","MEAN_MOTION":14.2427018,"ECCENTRICITY":0.00107453,"INCLINATION":98.6777,"RA_OF_ASC_NODE":82.7351,"ARG_OF_PERICENTER":101.3524,"MEAN_ANOMALY":258.8862,"EPHEMERIS_TYPE":0,"CLASSIFICATION_TYPE":"U","NORAD_CAT_ID":27844,"ELEMENT_SET_NO":999,"REV_AT_EPOCH":17812,"BSTAR":0.00019032227,"MEAN_MOTION_DOT":3.96e-6,"MEAN_MOTION_DDOT":0},{"OBJECT_NAME":"CUBESAT XI-IV (CO-57)","OBJECT_ID":"2003-031J","EPOCH":"2026-03-14T13:31:00.670944","MEAN_MOTION":14.2356524,"ECCENTRICITY":0.00105214,"INCLINATION":98.6807,"RA_OF_ASC_NODE":83.0901,"ARG_OF_PERICENTER":116.0304,"MEAN_ANOMALY":244.1959,"EPHEMERIS_TYPE":0,"CLASSIFICATION_TYPE":"U","NORAD_CAT_ID":27848,"ELEMENT_SET_NO":999,"REV_AT_EPOCH":17791,"BSTAR":0.00017224166,"MEAN_MOTION_DOT":3.49e-6,"MEAN_MOTION_DDOT":0},{"OBJECT_NAME":"APRIZESAT 4","OBJECT_ID":"2009-041D","EPOCH":"2026-03-14T04:09:31.192416","MEAN_MOTION":14.83718681,"ECCENTRICITY":0.00420686,"INCLINATION":98.1478,"RA_OF_ASC_NODE":146.588,"ARG_OF_PERICENTER":269.6936,"MEAN_ANOMALY":89.9457,"EPHEMERIS_TYPE":0,"CLASSIFICATION_TYPE":"U","NORAD_CAT_ID":35684,"ELEMENT_SET_NO":999,"REV_AT_EPOCH":89727,"BSTAR":0.00012270149,"MEAN_MOTION_DOT":9.71e-6,"MEAN_MOTION_DDOT":0},{"OBJECT_NAME":"APRIZESAT 3","OBJECT_ID":"2009-041F","EPOCH":"2026-03-14T09:26:36.978720","MEAN_MOTION":14.95917721,"ECCENTRICITY":0.00623811,"INCLINATION":98.1899,"RA_OF_ASC_NODE":222.1705,"ARG_OF_PERICENTER":20.9503,"MEAN_ANOMALY":339.4251,"EPHEMERIS_TYPE":0,"CLASSIFICATION_TYPE":"U","NORAD_CAT_ID":35686,"ELEMENT_SET_NO":999,"REV_AT_EPOCH":90220,"BSTAR":0.00014982325,"MEAN_MOTION_DOT":1.675e-5,"MEAN_MOTION_DDOT":0},{"OBJECT_NAME":"PROBA-2","OBJECT_ID":"2009-059B","EPOCH":"2026-03-14T11:10:53.329728","MEAN_MOTION":14.54795127,"ECCENTRICITY":0.00126011,"INCLINATION":98.2435,"RA_OF_ASC_NODE":258.1325,"ARG_OF_PERICENTER":208.6272,"MEAN_ANOMALY":151.4235,"EPHEMERIS_TYPE":0,"CLASSIFICATION_TYPE":"U","NORAD_CAT_ID":36037,"ELEMENT_SET_NO":999,"REV_AT_EPOCH":86775,"BSTAR":8.633735e-5,"MEAN_MOTION_DOT":3.25e-6,"MEAN_MOTION_DDOT":0},{"OBJECT_NAME":"APRIZESAT 5","OBJECT_ID":"2011-044E","EPOCH":"2026-03-14T08:24:25.456032","MEAN_MOTION":14.80873971,"ECCENTRICITY":0.00513852,"INCLINATION":98.2404,"RA_OF_ASC_NODE":3.7476,"ARG_OF_PERICENTER":309.2158,"MEAN_ANOMALY":50.4497,"EPHEMERIS_TYPE":0,"CLASSIFICATION_TYPE":"U","NORAD_CAT_ID":37792,"ELEMENT_SET_NO":999,"REV_AT_EPOCH":78475,"BSTAR":0.00020046315,"MEAN_MOTION_DOT":1.523e-5,"MEAN_MOTION_DDOT":0},{"OBJECT_NAME":"APRIZESAT 6","OBJECT_ID":"2011-044F","EPOCH":"2026-03-14T15:10:32.880864","MEAN_MOTION":14.7676494,"ECCENTRICITY":0.00439875,"INCLINATION":98.2414,"RA_OF_ASC_NODE":342.1877,"ARG_OF_PERICENTER":30.0106,"MEAN_ANOMALY":33.3244,"EPHEMERIS_TYPE":0,"CLASSIFICATION_TYPE":"U","NORAD_CAT_ID":37793,"ELEMENT_SET_NO":999,"REV_AT_EPOCH":78319,"BSTAR":0.00016847146,"MEAN_MOTION_DOT":1.143e-5,"MEAN_MOTION_DDOT":0},{"OBJECT_NAME":"PROBA-V","OBJECT_ID":"2013-021A","EPOCH":"2026-03-14T12:21:52.837632","MEAN_MOTION":14.235752,"ECCENTRICITY":0.00051824,"INCLINATION":98.3512,"RA_OF_ASC_NODE":56.8339,"ARG_OF_PERICENTER":58.7323,"MEAN_ANOMALY":301.4363,"EPHEMERIS_TYPE":0,"CLASSIFICATION_TYPE":"U","NORAD_CAT_ID":39159,"ELEMENT_SET_NO":999,"REV_AT_EPOCH":66764,"BSTAR":6.974177e-5,"MEAN_MOTION_DOT":1.18e-6,"MEAN_MOTION_DDOT":0},{"OBJECT_NAME":"APRIZESAT 7","OBJECT_ID":"2013-066A","EPOCH":"2026-03-14T10:07:47.870112","MEAN_MOTION":14.91300666,"ECCENTRICITY":0.00363746,"INCLINATION":97.7603,"RA_OF_ASC_NODE":28.0796,"ARG_OF_PERICENTER":163.1774,"MEAN_ANOMALY":197.066,"EPHEMERIS_TYPE":0,"CLASSIFICATION_TYPE":"U","NORAD_CAT_ID":39416,"ELEMENT_SET_NO":999,"REV_AT_EPOCH":66710,"BSTAR":0.00018962537,"MEAN_MOTION_DOT":1.855e-5,"MEAN_MOTION_DDOT":0},{"OBJECT_NAME":"APRIZESAT 8","OBJECT_ID":"2013-066K","EPOCH":"2026-03-14T08:43:33.595392","MEAN_MOTION":14.8743924,"ECCENTRICITY":0.0044767,"INCLINATION":97.8123,"RA_OF_ASC_NODE":22.225,"ARG_OF_PERICENTER":237.0568,"MEAN_ANOMALY":122.6339,"EPHEMERIS_TYPE":0,"CLASSIFICATION_TYPE":"U","NORAD_CAT_ID":39425,"ELEMENT_SET_NO":999,"REV_AT_EPOCH":66557,"BSTAR":0.00015767077,"MEAN_MOTION_DOT":1.396e-5,"MEAN_MOTION_DDOT":0},{"OBJECT_NAME":"BUGSAT-1 (TITA)","OBJECT_ID":"2014-033E","EPOCH":"2026-03-14T14:14:39.036768","MEAN_MOTION":15.14570229,"ECCENTRICITY":0.00295209,"INCLINATION":98.0424,"RA_OF_ASC_NODE":160.6968,"ARG_OF_PERICENTER":142.1948,"MEAN_ANOMALY":218.1364,"EPHEMERIS_TYPE":0,"CLASSIFICATION_TYPE":"U","NORAD_CAT_ID":40014,"ELEMENT_SET_NO":999,"REV_AT_EPOCH":64151,"BSTAR":0.00042069285,"MEAN_MOTION_DOT":7.772e-5,"MEAN_MOTION_DDOT":0},{"OBJECT_NAME":"SAUDISAT 4","OBJECT_ID":"2014-033G","EPOCH":"2026-03-14T08:45:37.464480","MEAN_MOTION":14.79399685,"ECCENTRICITY":0.00453956,"INCLINATION":97.7421,"RA_OF_ASC_NODE":222.8625,"ARG_OF_PERICENTER":23.709,"MEAN_ANOMALY":336.62,"EPHEMERIS_TYPE":0,"CLASSIFICATION_TYPE":"U","NORAD_CAT_ID":40016,"ELEMENT_SET_NO":999,"REV_AT_EPOCH":63205,"BSTAR":0.00012374242,"MEAN_MOTION_DOT":8.87e-6,"MEAN_MOTION_DDOT":0},{"OBJECT_NAME":"APRIZESAT 9","OBJECT_ID":"2014-033J","EPOCH":"2026-03-14T14:06:32.546880","MEAN_MOTION":14.7408688,"ECCENTRICITY":0.00671384,"INCLINATION":97.8889,"RA_OF_ASC_NODE":209.1888,"ARG_OF_PERICENTER":143.5962,"MEAN_ANOMALY":216.984,"EPHEMERIS_TYPE":0,"CLASSIFICATION_TYPE":"U","NORAD_CAT_ID":40018,"ELEMENT_SET_NO":999,"REV_AT_EPOCH":62962,"BSTAR":0.00018000347,"MEAN_MOTION_DOT":1.177e-5,"MEAN_MOTION_DDOT":0},{"OBJECT_NAME":"APRIZESAT 10","OBJECT_ID":"2014-033K","EPOCH":"2026-03-14T07:02:22.149024","MEAN_MOTION":14.70761983,"ECCENTRICITY":0.00782242,"INCLINATION":97.9485,"RA_OF_ASC_NODE":202.4601,"ARG_OF_PERICENTER":216.0427,"MEAN_ANOMALY":143.5491,"EPHEMERIS_TYPE":0,"CLASSIFICATION_TYPE":"U","NORAD_CAT_ID":40019,"ELEMENT_SET_NO":999,"REV_AT_EPOCH":62830,"BSTAR":0.00015881454,"MEAN_MOTION_DOT":9.63e-6,"MEAN_MOTION_DDOT":0},{"OBJECT_NAME":"TECHDEMOSAT-1 (TDS-1)","OBJECT_ID":"2014-037H","EPOCH":"2026-03-14T11:45:17.589024","MEAN_MOTION":15.116879,"ECCENTRICITY":0.00051907,"INCLINATION":98.3779,"RA_OF_ASC_NODE":56.4617,"ARG_OF_PERICENTER":215.7232,"MEAN_ANOMALY":144.3649,"EPHEMERIS_TYPE":0,"CLASSIFICATION_TYPE":"U","NORAD_CAT_ID":40076,"ELEMENT_SET_NO":999,"REV_AT_EPOCH":63391,"BSTAR":0.00070111174,"MEAN_MOTION_DOT":0.00011873,"MEAN_MOTION_DDOT":0}]
