PROBA-1                 
1 26958U 01049B   26073.60428690  .00003644  00000+0  23863-3 0  9998
2 26958  97.9638  78.8499 0057233  82.8223 277.9506 15.07062957329376
CUTE-1 (CO-55)          
1 27844U 03031E   26072.98964531  .00000396  00000+0  19032-3 0  9999
2 27844  98.6777  82.7351 0010745 101.3524 258.8862 14.24270180178127
CUBESAT XI-IV (CO-57)   
1 27848U 03031J   26073.56320221  .00000349  00000+0  17224-3 0  9999
2 27848  98.6807  83.0901 0010521 116.0304 244.1959 14.23565240177915
APRIZESAT 4             
1 35684U 09041D   26073.17327769  .00000971  00000+0  12270-3 0  9991
2 35684  98.1478 146.5880 0042068 269.6936  89.9457 14.83718681897270
APRIZESAT 3             
1 35686U 09041F   26073.39348355  .00001675  00000+0  14982-3 0  9995
2 35686  98.1899 222.1705 0062381  20.9503 339.4251 14.95917721902208
PROBA-2                 
1 36037U 09059B   26073.46589502  .00000325  00000+0  86337-4 0  9999
2 36037  98.2435 258.1325 0012601 208.6272 151.4235 14.54795127867754
APRIZESAT 5             
1 37792U 11044E   26073.35029463  .00001523  00000+0  20046-3 0  9993
2 37792  98.2404   3.7476 0051385 309.2158  50.4497 14.80873971784752
APRIZESAT 6             
1 37793U 11044F   26073.63232501  .00001143  00000+0  16847-3 0  9996
2 37793  98.2414 342.1877 0043987  30.0106  33.3244 14.76764940783197
PROBA-V                 
1 39159U 13021A   26073.51519488  .00000118  00000+0  69742-4 0  9994
2 39159  98.3512  56.8339 0005182  58.7323 301.4363 14.23575200667643
APRIZESAT 7             
1 39416U 13066A   26073.42208183  .00001855  00000+0  18963-3 0  9993
2 39416  97.7603  28.0796 0036374 163.1774 197.0660 14.91300666667106
APRIZESAT 8             
1 39425U 13066K   26073.36358328  .00001396  00000+0  15767-3 0  9992
2 39425  97.8123  22.2250 0044767 237.0568 122.6339 14.87439240665574
BUGSAT-1 (TITA)         
1 40014U 14033E   26073.59350737  .00007772  00000+0  42069-3 0  9993
2 40014  98.0424 160.6968 0029520 142.1948 218.1364 15.14570229641519
SAUDISAT 4              
1 40016U 14033G   26073.36501695  .00000887  00000+0  12374-3 0  9997
2 40016  97.7421 222.8625 0045395  23.7090 336.6200 14.79399685632054
APRIZESAT 9             
1 40018U 14033J   26073.58787670  .00001177  00000+0  18000-3 0  9997
2 40018  97.8889 209.1888 0067138 143.5962 216.9840 14.74086880629626
APRIZESAT 10            
1 40019U 14033K   26073.29331191  .00000963  00000+0  15881-3 0  9995
2 40019  97.9485 202.4601 0078224 216.0427 143.5491 14.70761983628300
TECHDEMOSAT-1 (TDS-1)   
1 40076U 14037H   26073.48978691  .00011873  00000+0  70111-3 0  9994
2 40076  98.3779  56.4617 0005190 215.7232 144.3649 15.11687900633919
